[{"OBJECT_NAME":"STARLINK-5249","OBJECT_ID":"2022-141BA","EPOCH":"2026-03-09T02:22:07.998816","MEAN_MOTION":15.08848113,"ECCENTRICITY":0.00012661,"INCLINATION":53.2186,"RA_OF_ASC_NODE":356.4136,"ARG_OF_PERICENTER":73.8418,"MEAN_ANOMALY":286.2713,"EPHEMERIS_TYPE":0,"CLASSIFICATION_TYPE":"U","NORAD_CAT_ID":54205,"ELEMENT_SET_NO":999,"REV_AT_EPOCH":18591,"BSTAR":0.00013445129,"MEAN_MOTION_DOT":1.853e-5,"MEAN_MOTION_DDOT":0},{"OBJECT_NAME":"LEMUR-2-AHMED-ASRAR","OBJECT_ID":"2024-149DN","EPOCH":"2026-03-09T17:35:01.338432","MEAN_MOTION":15.10376432,"ECCENTRICITY":0.00016334,"INCLINATION":97.7021,"RA_OF_ASC_NODE":152.9847,"ARG_OF_PERICENTER":18.5035,"MEAN_ANOMALY":341.6253,"EPHEMERIS_TYPE":0,"CLASSIFICATION_TYPE":"U","NORAD_CAT_ID":60576,"ELEMENT_SET_NO":999,"REV_AT_EPOCH":8554,"BSTAR":0.0007977347,"MEAN_MOTION_DOT":0.00013045,"MEAN_MOTION_DDOT":0}]
