STARLINK-5249           
1 54205U 22141BA  26068.09870369  .00001853  00000+0  13445-3 0  9996
2 54205  53.2186 356.4136 0001266  73.8418 286.2713 15.08848113185919
LEMUR-2-AHMED-ASRAR     
1 60576U 24149DN  26068.73265438  .00013045  00000+0  79773-3 0  9992
2 60576  97.7021 152.9847 0001633  18.5035 341.6253 15.10376432 85541
